GLOBALSTAR M045 [-]     
1 25676U 99019A   23257.04647244 -.00000046  00000+0  42224-3 0  9991
2 25676  51.9997 335.4363 0000793  55.8254  12.2648 12.27015227114809
GLOBALSTAR M019 [-]     
1 25677U 99019B   23257.38408954 -.00000199  00000+0 -11381-2 0  9991
2 25677  51.9885  59.6941 0001826  96.1503 270.6138 12.13845344107392
GLOBALSTAR M044 [-]     
1 25678U 99019C   23257.42278840 -.00000109  00000+0 -35012-3 0  9995
2 25678  51.9967 290.6665 0006283 240.7401 224.0190 11.90222194 94886
GLOBALSTAR M042 [-]     
1 25679U 99019D   23256.68494497 -.00000073  00000+0  17604-3 0  9997
2 25679  52.0016  64.6931 0003848  63.4112  18.5825 12.22046615106706
GLOBALSTAR M025 [-]     
1 25770U 99031A   23256.33445215 -.00000073  00000+0 -17792-3 0  9998
2 25770  51.9792 208.4724 0000999 126.9058  43.2696 11.22544628409515
GLOBALSTAR M049 [-]     
1 25771U 99031B   23257.22949637 -.00000013  00000+0  18275-2 0  9994
2 25771  51.9845 208.8996 0003034  10.1327 349.9531 11.12096741 46008
GLOBALSTAR M047 [-]     
1 25772U 99031C   23256.53125316 -.00000051  00000+0  50044-3 0  9991
2 25772  51.9813 268.8508 0016297 239.6061 120.3134 11.31915294398337
GLOBALSTAR M052 [-]     
1 25773U 99031D   23256.94959381 -.00000007  00000+0  19917-2 0  9998
2 25773  51.9894 327.2401 0002643 181.2922 348.9027 11.15045384406860
